[{"OBJECT_NAME":"DONGPO 08","OBJECT_ID":"2022-167E","EPOCH":"2026-03-09T22:57:52.742880","MEAN_MOTION":15.31542505,"ECCENTRICITY":0.00092155,"INCLINATION":97.6764,"RA_OF_ASC_NODE":233.3854,"ARG_OF_PERICENTER":153.9158,"MEAN_ANOMALY":206.2548,"EPHEMERIS_TYPE":0,"CLASSIFICATION_TYPE":"U","NORAD_CAT_ID":54686,"ELEMENT_SET_NO":999,"REV_AT_EPOCH":18012,"BSTAR":0.0004734784,"MEAN_MOTION_DOT":0.0001437,"MEAN_MOTION_DDOT":0},{"OBJECT_NAME":"STARLINK-32695","OBJECT_ID":"2025-022N","EPOCH":"2026-03-09T13:18:25.922016","MEAN_MOTION":15.30191356,"ECCENTRICITY":0.0001135,"INCLINATION":53.1606,"RA_OF_ASC_NODE":129.9413,"ARG_OF_PERICENTER":100.6636,"MEAN_ANOMALY":259.4492,"EPHEMERIS_TYPE":0,"CLASSIFICATION_TYPE":"U","NORAD_CAT_ID":62866,"ELEMENT_SET_NO":999,"REV_AT_EPOCH":6188,"BSTAR":0.00083824,"MEAN_MOTION_DOT":0.00024542,"MEAN_MOTION_DDOT":0}]
